LANDSAT 9               
1 49260U 21088A   24134.14945000  .00001665  00000+0  37928-3 0  9996
2 49260  98.1882 204.3591 0001276  88.2203 271.9142 14.57130904139588
